[{"OBJECT_NAME":"POPACS 2","OBJECT_ID":"2013-055E","EPOCH":"2026-03-09T12:13:44.500512","MEAN_MOTION":14.87802959,"ECCENTRICITY":0.04307455,"INCLINATION":80.9893,"RA_OF_ASC_NODE":258.0384,"ARG_OF_PERICENTER":153.4128,"MEAN_ANOMALY":208.9906,"EPHEMERIS_TYPE":0,"CLASSIFICATION_TYPE":"U","NORAD_CAT_ID":39269,"ELEMENT_SET_NO":999,"REV_AT_EPOCH":64837,"BSTAR":0.00051934698,"MEAN_MOTION_DOT":0.00029878,"MEAN_MOTION_DDOT":0},{"OBJECT_NAME":"COSMOS 1275 DEB","OBJECT_ID":"1981-053G","EPOCH":"2026-03-09T23:37:59.882304","MEAN_MOTION":14.0267746,"ECCENTRICITY":0.00494993,"INCLINATION":82.9345,"RA_OF_ASC_NODE":73.6053,"ARG_OF_PERICENTER":265.2589,"MEAN_ANOMALY":123.4379,"EPHEMERIS_TYPE":0,"CLASSIFICATION_TYPE":"U","NORAD_CAT_ID":12652,"ELEMENT_SET_NO":999,"REV_AT_EPOCH":18197,"BSTAR":0.0013172818,"MEAN_MOTION_DOT":2.069e-5,"MEAN_MOTION_DDOT":0}]
